NORAD_CAT_ID,OBJECT_NAME,OBJECT_TYPE,EPOCH,MEAN_MOTION,ECCENTRICITY,INCLINATION,RA_OF_ASC_NODE,ARG_OF_PERICENTER,MEAN_ANOMALY,BSTAR,MEAN_MOTION_DOT,MEAN_MOTION_DDOT,TLE_LINE0,TLE_LINE1,TLE_LINE2,SEMIMAJOR_AXIS,PERIOD,APOGEE,PERIGEE,DECAYED
52690.0,STARLINK-4035,PAYLOAD,2022-08-23 12:00:00,15.08861165,0.0002504,53.2156,193.9501,53.3643,121.487,-0.0016255,-0.00026081,0.0,0 STARLINK-4035,1 52690U 22053AL  22235.50001157 -.00026081  00000-0 -16255-2 0  9997,2 52690  53.2156 193.9501 0002504  53.3643 121.4870 15.08861165 15379,6917.816,95.436,541.413,537.948,0.0
52690.0,STARLINK-4035,PAYLOAD,2022-08-23 14:00:01,15.08860655,0.0002449,53.2158,193.5755,54.7497,213.0044,-0.0018324,-0.00029351,0.0,0 STARLINK-4035,1 52690U 22053AL  22235.58334491 -.00029351  00000-0 -18324-2 0  9997,2 52690  53.2158 193.5755 0002449  54.7497 213.0044 15.08860655  1300,6917.816999999999,95.436,541.376,537.988,0.0
52690.0,STARLINK-4035,PAYLOAD,2022-08-23 22:00:01,15.08867583,0.0002396999999999,53.2159,192.0787,58.6594,220.7598,-0.0028116,-0.00044793,0.0,0 STARLINK-4035,1 52690U 22053AL  22235.91668981 -.00044793  00000-0 -28116-2 0  9995,2 52690  53.2159 192.0787 0002397  58.6594 220.7598 15.08867583  1309,6917.795999999999,95.436,541.319,538.003,0.0
52690.0,STARLINK-4035,PAYLOAD,2022-08-24 14:00:01,15.08837757,0.0002445,53.216,189.0864,54.8628,247.6767,-0.00159,-0.00025504,0.0,0 STARLINK-4035,1 52690U 22053AL  22236.58334491 -.00025504  00000-0 -15900-2 0  9991,2 52690  53.2160 189.0864 0002445  54.8628 247.6767 15.08837757 15539,6917.887,95.438,541.444,538.061,0.0
52690.0,STARLINK-4035,PAYLOAD,2022-08-24 22:00:00,15.08839794,0.0002463,53.2162,187.5897,58.863,255.2553,-0.00010944,-2.03e-05,0.0,0 STARLINK-4035,1 52690U 22053AL  22236.91667824 -.00002030  00000-0 -10944-3 0  9990,2 52690  53.2162 187.5897 0002463  58.8630 255.2553 15.08839794  1308,6917.880999999999,95.438,541.45,538.0419999999998,0.0
52690.0,STARLINK-4035,PAYLOAD,2022-08-25 06:00:02,15.08818106,0.000265,53.2164,186.095,54.4139,271.366,0.0020749,0.0003286999999999,0.0,0 STARLINK-4035,1 52690U 22053AL  22237.25002315  .00032870  00000-0  20749-2 0  9992,2 52690  53.2164 186.0950 0002650  54.4139 271.3660 15.08818106 15631,6917.946999999999,95.439,541.646,537.979,0.0
52690.0,STARLINK-4035,PAYLOAD,2022-08-25 14:00:01,15.08845951,0.0002546,53.2166,184.5973,56.5325,280.7686,-0.0010184,-0.00016463,0.0,0 STARLINK-4035,1 52690U 22053AL  22237.58334491 -.00016463  00000-0 -10184-2 0  9995,2 52690  53.2166 184.5973 0002546  56.5325 280.7686 15.08845951  1304,6917.861999999999,95.437,541.488,537.966,0.0
52690.0,STARLINK-4035,PAYLOAD,2022-08-25 18:00:00,15.08822278,0.0002515,53.2165,183.8484,58.6581,104.4466,0.0024844,0.00039455,0.0,0 STARLINK-4035,1 52690U 22053AL  22237.75001157  .00039455  00000-0  24844-2 0  9996,2 52690  53.2165 183.8484 0002515  58.6581 104.4466 15.08822278 15710,6917.935,95.439,541.539,538.06,0.0
52690.0,STARLINK-4035,PAYLOAD,2022-08-25 22:00:00,15.088541500000002,0.0002578,53.2169,183.1007,59.6344,289.2564,-0.00045792,-7.572e-05,0.0,0 STARLINK-4035,1 52690U 22053AL  22237.91667824 -.00007572  00000-0 -45792-3 0  9996,2 52690  53.2169 183.1007 0002578  59.6344 289.2564 15.08854150  1300,6917.837,95.437,541.486,537.919,0.0
52690.0,STARLINK-4035,PAYLOAD,2022-08-26 14:00:01,15.08855499,0.0002575,53.2174,180.1081,57.6877,314.4813,-0.0029403,-0.00046802,0.0,0 STARLINK-4035,1 52690U 22053AL  22238.58335648 -.00046802  00000-0 -29403-2 0  9995,2 52690  53.2174 180.1081 0002575  57.6877 314.4813 15.08855499 15839,6917.833000000001,95.437,541.479,537.9169999999998,0.0
52690.0,STARLINK-4035,PAYLOAD,2022-08-26 22:00:00,15.08843629,0.0002573,53.2177,178.6119,59.51600000000001,324.1785,-0.00079995,-0.00012999,0.0,0 STARLINK-4035,1 52690U 22053AL  22238.91667824 -.00012999  00000-0 -79995-3 0  9998,2 52690  53.2177 178.6119 0002573  59.5160 324.1785 15.08843629  1305,6917.869000000002,95.437,541.514,537.9540000000002,0.0
52690.0,STARLINK-4035,PAYLOAD,2022-08-27 14:00:01,15.08839938,0.0002596,53.218,175.6192,59.5272,347.3578,0.0002655,3.94e-05,0.0,0 STARLINK-4035,1 52690U 22053AL  22239.58334491  .00003940  00000-0  26550-3 0  9996,2 52690  53.2180 175.6192 0002596  59.5272 347.3578 15.08839938  1301,6917.880999999999,95.438,541.5409999999998,537.95,0.0
52690.0,STARLINK-4035,PAYLOAD,2022-08-27 22:00:00,15.08864514,0.0002622,53.2182,174.1232,61.2352,357.2408,-0.0010093,-0.00016327,0.0,0 STARLINK-4035,1 52690U 22053AL  22239.91667824 -.00016327  00000-0 -10093-2 0  9991,2 52690  53.2182 174.1232 0002622  61.2352 357.2408 15.08864514  1301,6917.805,95.436,541.484,537.857,0.0
52690.0,STARLINK-4035,PAYLOAD,2022-08-28 06:00:00,15.08842074,0.0002692,53.2182,172.6283,57.0083,13.0911,0.00069287,0.00010757,0.0,0 STARLINK-4035,1 52690U 22053AL  22240.25001157  .00010757  00000-0  69287-3 0  9990,2 52690  53.2182 172.6283 0002692  57.0083  13.0911 15.08842074 16085,6917.874,95.437,541.601,537.877,0.0
52690.0,STARLINK-4035,PAYLOAD,2022-08-28 14:00:01,15.08841506,0.0002491,53.2182,171.1303,60.6849,21.024,9.1328e-05,1.165e-05,0.0,0 STARLINK-4035,1 52690U 22053AL  22240.58334491  .00001165  00000-0  91328-4 0  9991,2 52690  53.2182 171.1303 0002491  60.6849  21.0240 15.08841506  1301,6917.876,95.437,541.464,538.018,0.0
52690.0,STARLINK-4035,PAYLOAD,2022-08-28 20:00:01,15.08849649,0.000247,53.2184,170.00799999999995,62.7191,297.6806,-0.0016852,-0.00027017,0.0,0 STARLINK-4035,1 52690U 22053AL  22240.83334491 -.00027017  00000-0 -16852-2 0  9992,2 52690  53.2184 170.0080 0002470  62.7191 297.6806 15.08849649 16179,6917.851,95.437,541.425,538.007,0.0
52690.0,STARLINK-4035,PAYLOAD,2022-08-28 22:00:00,15.08851434,0.0002487,53.2183,169.6344,61.4844,31.8148,-0.0026984,-0.00042993,0.0,0 STARLINK-4035,1 52690U 22053AL  22240.91667824 -.00042993  00000-0 -26984-2 0  9997,2 52690  53.2183 169.6344 0002487  61.4844  31.8148 15.08851434  1305,6917.845,95.437,541.431,537.99,0.0
52690.0,STARLINK-4035,PAYLOAD,2022-08-29 14:00:01,15.0881913,0.0002418,53.2179,166.6416,62.0745,54.3967,0.0013821,0.00021764,0.0,0 STARLINK-4035,1 52690U 22053AL  22241.58334491  .00021764  00000-0  13821-2 0  9999,2 52690  53.2179 166.6416 0002418  62.0745  54.3967 15.08819130  1304,6917.944,95.439,541.482,538.136,0.0
52690.0,STARLINK-4035,PAYLOAD,2022-08-29 22:00:00,15.088549300000002,0.0002492,53.2179,165.1459,63.4207,64.6261,-0.0014869999999999,-0.00023887,0.0,0 STARLINK-4035,1 52690U 22053AL  22241.91667824 -.00023887  00000-0 -14870-2 0  9990,2 52690  53.2179 165.1459 0002492  63.4207  64.6261 15.08854930 16343,6917.835,95.437,541.424,537.976,0.0
52690.0,STARLINK-4035,PAYLOAD,2022-08-30 14:00:01,15.088293300000002,0.000245,53.2174,162.1554,61.6802,89.5634,-0.0029370999999999,-0.00046718,0.0,0 STARLINK-4035,1 52690U 22053AL  22242.58334491 -.00046718  00000-0 -29371-2 0  9995,2 52690  53.2174 162.1554 0002450  61.6802  89.5634 15.08829330  1302,6917.913000000001,95.438,541.4730000000002,538.0830000000002,0.0
52690.0,STARLINK-4035,PAYLOAD,2022-08-30 22:00:00,15.08843431,0.0002447,53.2172,160.6572,64.193,98.618,-0.0015087,-0.00024222,0.0,0 STARLINK-4035,1 52690U 22053AL  22242.91667824 -.00024222  00000-0 -15087-2 0  9996,2 52690  53.2172 160.6572 0002447  64.1930  98.6180 15.08843431 16490,6917.87,95.437,541.428,538.0419999999998,0.0
52690.0,STARLINK-4035,PAYLOAD,2022-08-31 12:00:00,15.08841275,0.0002433,53.2167,158.0382,64.3608,28.7299,-0.00029293,-4.948e-05,0.0,0 STARLINK-4035,1 52690U 22053AL  22243.50001157 -.00004948  00000-0 -29293-3 0  9991,2 52690  53.2167 158.0382 0002433  64.3608  28.7299 15.08841275 16582,6917.876,95.437,541.425,538.058,0.0
52690.0,STARLINK-4035,PAYLOAD,2022-08-31 14:00:01,15.08821587,0.0002411999999999,53.2166,157.6638,64.9797,121.0146,0.0022464,0.00035627,0.0,0 STARLINK-4035,1 52690U 22053AL  22243.58334491  .00035627  00000-0  22464-2 0  9997,2 52690  53.2166 157.6638 0002412  64.9797 121.0146 15.08821587  1308,6917.937,95.439,541.47,538.133,0.0
52690.0,STARLINK-4035,PAYLOAD,2022-08-31 22:00:00,15.08870896,0.0002485999999999,53.2166,156.1683,65.3102,132.2678,-0.0035286,-0.0005606,0.0,0 STARLINK-4035,1 52690U 22053AL  22243.91667824 -.00056060  00000-0 -35286-2 0  9995,2 52690  53.2166 156.1683 0002486  65.3102 132.2678 15.08870896  1309,6917.786,95.436,541.371,537.931,0.0
52690.0,STARLINK-4035,PAYLOAD,2022-09-01 14:00:01,15.08810922,0.0002395,53.2163,153.1745,65.1462,155.6903,0.002666,0.00042364,0.0,0 STARLINK-4035,1 52690U 22053AL  22244.58335648  .00042364  00000-0  26660-2 0  9991,2 52690  53.2163 153.1745 0002395  65.1462 155.6903 15.08810922  1302,6917.969,95.439,541.491,538.177,0.0
52690.0,STARLINK-4035,PAYLOAD,2022-09-01 22:00:00,15.08851802,0.0002512,53.2164,151.6792,65.1462,167.2037,-0.0011834,-0.0001908,0.0,0 STARLINK-4035,1 52690U 22053AL  22244.91667824 -.00019080  00000-0 -11834-2 0  9990,2 52690  53.2164 151.6792 0002512  65.1462 167.2037 15.08851802 16797,6917.844,95.437,541.447,537.972,0.0
52690.0,STARLINK-4035,PAYLOAD,2022-09-02 14:00:01,15.08808546,0.0002398,53.2165,148.6853,65.6273,189.9281,0.0019077999999999,0.0003018,0.0,0 STARLINK-4035,1 52690U 22053AL  22245.58334491  .00030180  00000-0  19078-2 0  9995,2 52690  53.2165 148.6853 0002398  65.6273 189.9281 15.08808546  1309,6917.977,95.44,541.5,538.183,0.0
52690.0,STARLINK-4035,PAYLOAD,2022-09-02 20:00:01,15.08839718,0.0002469,53.2168,147.5635,66.2288,107.9976,-0.00097393,-0.00015756,0.0,0 STARLINK-4035,1 52690U 22053AL  22245.83334491 -.00015756  00000-0 -97393-3 0  9994,2 52690  53.2168 147.5635 0002469  66.2288 107.9976 15.08839718 16931,6917.880999999999,95.438,541.4540000000002,538.038,0.0
52690.0,STARLINK-4035,PAYLOAD,2022-09-02 22:00:01,15.08839219,0.0002501,53.2166,147.19,64.6156,202.5711,-0.0012388,-0.0001995,0.0,0 STARLINK-4035,1 52690U 22053AL  22245.91668981 -.00019950  00000-0 -12388-2 0  9997,2 52690  53.2166 147.1900 0002501  64.6156 202.5711 15.08839219  1303,6917.8830000000025,95.438,541.4780000000002,538.018,0.0
